      2.10          N: GNSS NAV DATA                        RINEX VERSION / TYPE
fic2rin                                 03/14/2021 00:17:21 PGM / RUN BY / DATE
                                                            END OF HEADER
13 21  3 13 20  0  0.0 1.074536703527e-04 4.433786671143e-12 0.000000000000e+00
    7.200000000000e+01-4.046875000000e+01 3.975522739337e-09 1.009996453401e+00
   -2.149492502213e-06 4.908584174700e-03 1.269020140171e-05 5.153691379547e+03
    5.904000000000e+05-5.215406417847e-08 1.532856476825e-01-5.587935447693e-09
    9.686184826192e-01 1.376562500000e+02 1.011331139396e+00-7.823183009831e-09
    2.857261873569e-12 1.000000000000e+00 2.148000000000e+03 0.000000000000e+00
    2.400000000000e+00 0.000000000000e+00-1.117587089539e-08 7.200000000000e+01
    5.832000000000e+05 4.000000000000e+00
14 21  3 13 20  0  0.0 9.986991062760e-05 0.000000000000e+00 0.000000000000e+00
    7.200000000000e+01-4.803125000000e+01 5.115213069156e-09-1.131800670167e+00
   -2.505257725716e-06 4.596253857017e-04 4.645437002182e-06 5.153736339569e+03
    5.904000000000e+05 1.117587089539e-08 2.162722772530e+00-7.450580596924e-09
    9.577093752282e-01 2.897187500000e+02 2.278545967225e+00-8.449637675611e-09
   -3.342996392075e-10 1.000000000000e+00 2.148000000000e+03 0.000000000000e+00
    2.400000000000e+00 0.000000000000e+00-7.916241884232e-09 5.840000000000e+02
    5.832000000000e+05 4.000000000000e+00
11 21  3 13 20  0  0.0 2.039596438408e-07 1.068656274583e-11 0.000000000000e+00
    9.900000000000e+01 8.831250000000e+01 5.447012604224e-09-1.266786009968e+00
    4.578381776810e-06 1.531298144255e-02 1.119449734688e-05 5.154083662033e+03
    5.904000000000e+05-3.073364496231e-07-2.556187255894e+00-2.607703208923e-08
    9.144944474730e-01 1.402500000000e+02 2.086212550509e+00-8.697862300877e-09
    2.425101015191e-10 1.000000000000e+00 2.148000000000e+03 0.000000000000e+00
    2.400000000000e+00 6.300000000000e+01-1.257285475731e-08 9.900000000000e+01
    5.832000000000e+05 4.000000000000e+00
32 21  3 13 20  0  0.0 2.110050991178e-05 6.821210263297e-13 0.000000000000e+00
    7.600000000000e+01-4.887500000000e+01 4.139458139333e-09 2.366714154161e+00
   -2.410262823105e-06 4.712179652415e-03 1.188740134239e-05 5.153658889771e+03
    5.904000000000e+05-2.980232238770e-08 1.561213300515e-02-1.080334186554e-07
    9.577403686106e-01 1.476875000000e+02-2.415901728781e+00-7.811396804603e-09
   -2.678683006471e-11 1.000000000000e+00 2.148000000000e+03 0.000000000000e+00
    2.400000000000e+00 0.000000000000e+00 4.656612873077e-10 7.600000000000e+01
    5.832000000000e+05 4.000000000000e+00
26 21  3 13 20  0  0.0 5.759857594967e-05 5.343281372916e-12 0.000000000000e+00
    5.700000000000e+01-4.312500000000e+01 5.467727752808e-09-2.865602728793e+00
   -2.263113856316e-06 5.780942505226e-03 3.945082426071e-06 5.153765155792e+03
    5.904000000000e+05-1.378357410431e-07 2.075416732957e+00-9.685754776001e-08
    9.424541503469e-01 2.961250000000e+02 2.920872170279e-01-8.567142570161e-09
   -2.664396697103e-10 1.000000000000e+00 2.148000000000e+03 0.000000000000e+00
    2.400000000000e+00 0.000000000000e+00 6.984919309616e-09 5.700000000000e+01
    5.832000000000e+05 4.000000000000e+00
25 21  3 13 20  0  0.0 9.818142279983e-05 7.503331289627e-12 0.000000000000e+00
    8.400000000000e+01-4.771875000000e+01 5.030923843886e-09-2.207654362968e+00
   -2.512708306313e-06 9.910064400174e-03 3.838911652565e-06 5.153650297165e+03
    5.904000000000e+05 1.806765794754e-07 2.116120362873e+00-2.421438694000e-08
    9.615190128635e-01 3.043750000000e+02 9.513055815359e-01-8.332489938795e-09
   -1.360770967287e-10 1.000000000000e+00 2.148000000000e+03 0.000000000000e+00
    2.400000000000e+00 0.000000000000e+00 5.587935447693e-09 8.400000000000e+01
    5.832000000000e+05 4.000000000000e+00
28 21  3 13 20  0  0.0 6.026346236467e-04-5.684341886081e-12 0.000000000000e+00
    7.800000000000e+01-5.484375000000e+01 4.658408327120e-09 2.362690298506e+00
   -2.831220626831e-06 1.780243159737e-02 4.636123776436e-06 5.153659732819e+03
    5.904000000000e+05 2.421438694000e-07 2.211062224782e+00-3.911554813385e-08
    9.734212265813e-01 2.935312500000e+02-1.348149549029e+00-7.932116118761e-09
   -5.021637742797e-10 1.000000000000e+00 2.148000000000e+03 0.000000000000e+00
    2.400000000000e+00 0.000000000000e+00-1.117587089539e-08 7.800000000000e+01
    5.832000000000e+05 4.000000000000e+00
23 21  3 13 20  0  0.0 1.175850629807e-04-9.094947017729e-13 0.000000000000e+00
    1.880000000000e+02-5.128125000000e+01 4.657336853917e-09-9.146326098452e-01
   -2.605840563774e-06 1.072106300853e-03 3.276392817497e-06 5.153644531250e+03
    5.904000000000e+05-7.636845111847e-08-1.050071922385e+00-3.911554813385e-08
    9.631579858190e-01 3.195312500000e+02 2.511108604153e+00-8.349633510036e-09
   -2.432244169875e-10 1.000000000000e+00 2.148000000000e+03 0.000000000000e+00
    2.400000000000e+00 0.000000000000e+00-8.381903171539e-09 1.880000000000e+02
    5.832000000000e+05 4.000000000000e+00
17 21  3 13 20  0  0.0 4.091453738511e-04 6.366462912410e-12 0.000000000000e+00
    1.020000000000e+02-1.162500000000e+01 3.785514824744e-09 1.579042405409e+00
   -8.642673492432e-07 1.342517556623e-02 1.326389610767e-05 5.153567386627e+03
    5.904000000000e+05 2.048909664154e-08-3.059101368537e+00-3.688037395477e-07
    9.829758473810e-01 1.342500000000e+02-1.573067122366e+00-7.568886703083e-09
   -2.817974522807e-10 1.000000000000e+00 2.148000000000e+03 0.000000000000e+00
    2.400000000000e+00 0.000000000000e+00-1.117587089539e-08 1.020000000000e+02
    5.832000000000e+05 4.000000000000e+00
18 21  3 13 20  0  0.0 3.504073247313e-04 9.094947017729e-13 0.000000000000e+00
    1.670000000000e+02 8.628125000000e+01 4.383396871789e-09-3.917421665022e-01
    4.349276423454e-06 1.217177603394e-03 6.752088665962e-06 5.153679538727e+03
    5.904000000000e+05 3.725290298462e-09-2.049947987511e+00-2.607703208923e-08
    9.670844257595e-01 2.546562500000e+02 3.005275781845e+00-8.129624345771e-09
    2.935836575092e-10 1.000000000000e+00 2.148000000000e+03 0.000000000000e+00
    2.400000000000e+00 0.000000000000e+00-8.381903171539e-09 9.350000000000e+02
    5.832000000000e+05 4.000000000000e+00
 6 21  3 13 19 59 44.0 7.082708179951e-07 1.932676241267e-12 0.000000000000e+00
    1.000000000000e+00 9.056250000000e+01 4.089813214279e-09-2.639994020290e-01
    4.716217517853e-06 2.326171845198e-03 7.415190339088e-06 5.153722724915e+03
    5.903840000000e+05-2.980232238770e-08-2.071067661835e+00-4.842877388000e-08
    9.828955448818e-01 2.497812500000e+02-1.035012567605e+00-7.986761252093e-09
    3.868018261344e-10 1.000000000000e+00 2.148000000000e+03 0.000000000000e+00
    2.400000000000e+00 0.000000000000e+00 3.725290298462e-09 1.000000000000e+00
    5.847600000000e+05 4.000000000000e+00
18 21  3 13 20 29 36.0 3.504082560539e-04 9.094947017729e-13 0.000000000000e+00
    1.680000000000e+02 8.746875000000e+01 4.407683597714e-09-1.327416374734e-01
    4.356727004051e-06 1.216999604367e-03 6.750226020813e-06 5.153679195404e+03
    5.921760000000e+05-1.862645149231e-09-2.049962411883e+00-1.490116119385e-08
    9.670849173000e-01 2.537187500000e+02 3.005318841376e+00-8.137124658189e-09
    2.910835533698e-10 1.000000000000e+00 2.148000000000e+03 0.000000000000e+00
    2.400000000000e+00 0.000000000000e+00-8.381903171539e-09 9.360000000000e+02
    5.850000000000e+05 4.000000000000e+00
 6 21  3 13 21 59 44.0 7.222406566143e-07 1.932676241267e-12 0.000000000000e+00
    2.000000000000e+00 9.268750000000e+01 4.151244344561e-09 7.861157422703e-01
    4.664063453674e-06 2.325860317796e-03 7.258728146553e-06 5.153722198486e+03
    5.975840000000e+05 2.235174179077e-08-2.071125113554e+00-3.725290298462e-08
    9.828981196177e-01 2.520625000000e+02-1.034979388623e+00-8.010333662550e-09
    3.575148919303e-10 1.000000000000e+00 2.148000000000e+03 0.000000000000e+00
    2.400000000000e+00 0.000000000000e+00 3.725290298462e-09 2.000000000000e+00
    5.904000000000e+05 4.000000000000e+00
 2 21  3 13 22  0  0.0-5.858158692718e-04-3.751665644813e-12 0.000000000000e+00
    8.900000000000e+01 8.684375000000e+01 4.690552523197e-09 7.456795615754e-01
    4.436820745468e-06 2.033494703937e-02 8.367002010345e-06 5.153630205154e+03
    5.976000000000e+05-2.477318048477e-07-2.145144518588e+00-1.434236764908e-07
    9.622189694252e-01 2.260937500000e+02-1.534192123957e+00-8.556427838136e-09
    2.957266039144e-10 1.000000000000e+00 2.148000000000e+03 0.000000000000e+00
    2.400000000000e+00 0.000000000000e+00-1.769512891769e-08 8.900000000000e+01
    5.904000000000e+05 4.000000000000e+00
 1 21  3 13 22  0  0.0 7.419073954225e-04-8.753886504564e-12 0.000000000000e+00
    9.000000000000e+01 9.143750000000e+01 4.243748197718e-09 4.953122343941e-01
    4.982575774193e-06 1.051881781314e-02 6.593763828278e-06 5.153685419083e+03
    5.976000000000e+05-6.705522537231e-08-2.062870059938e+00 1.620501279831e-07
    9.834124567447e-01 2.625312500000e+02 8.217818620560e-01-8.162482857317e-09
    2.689397738497e-10 1.000000000000e+00 2.148000000000e+03 0.000000000000e+00
    3.400000000000e+00 0.000000000000e+00 4.656612873077e-09 9.000000000000e+01
    5.904000000000e+05 4.000000000000e+00
 3 21  3 13 22  0  0.0-1.072469167411e-04-1.057287590811e-11 0.000000000000e+00
    6.600000000000e+01-5.706250000000e+01 4.725911138883e-09-6.191628029131e-01
   -3.045424818993e-06 3.301739692688e-03 3.430992364883e-06 5.153633407593e+03
    5.976000000000e+05 1.862645149231e-09-1.024120671445e+00 5.029141902924e-08
    9.683087345855e-01 3.155625000000e+02 8.349427368421e-01-8.426065265154e-09
   -3.825159333240e-10 1.000000000000e+00 2.148000000000e+03 0.000000000000e+00
    2.400000000000e+00 0.000000000000e+00 1.862645149231e-09 6.600000000000e+01
    5.904000000000e+05 4.000000000000e+00
